[{"OBJECT_NAME":"STARLINK-2058","OBJECT_ID":"2021-012AZ","EPOCH":"2026-03-09T22:00:01.999584","MEAN_MOTION":15.81751151,"ECCENTRICITY":0.00080245,"INCLINATION":53.0405,"RA_OF_ASC_NODE":22.819,"ARG_OF_PERICENTER":62.933,"MEAN_ANOMALY":251.0227,"EPHEMERIS_TYPE":0,"CLASSIFICATION_TYPE":"U","NORAD_CAT_ID":47667,"ELEMENT_SET_NO":999,"REV_AT_EPOCH":586,"BSTAR":0.001226838,"MEAN_MOTION_DOT":0.00259649,"MEAN_MOTION_DDOT":0},{"OBJECT_NAME":"STARLINK-36715","OBJECT_ID":"2026-025Z","EPOCH":"2026-03-09T19:52:29.433216","MEAN_MOTION":15.80826355,"ECCENTRICITY":0.00012727,"INCLINATION":97.2847,"RA_OF_ASC_NODE":180.593,"ARG_OF_PERICENTER":116.8063,"MEAN_ANOMALY":243.3336,"EPHEMERIS_TYPE":0,"CLASSIFICATION_TYPE":"U","NORAD_CAT_ID":67716,"ELEMENT_SET_NO":999,"REV_AT_EPOCH":597,"BSTAR":0.0020803823,"MEAN_MOTION_DOT":0.00418275,"MEAN_MOTION_DDOT":0}]
